BEESAT-4                
1 41619U 16040W   21080.09335543  .00002998  00000-0  12254-3 0  9990
2 41619  97.2811 138.6317 0009018 285.6725  74.3517 15.25086998251540
CAS-2T & KS-1Q          
1 41847U 16066G   21079.77138257  .00000187  00000-0  37573-4 0  9997
2 41847  98.6130 138.4877 0366336 124.9922 238.6236 14.38161623229139
NAYIF-1 (EO-88)         
1 42017U 17008BX  21079.75787291  .00003312  00000-0  12502-3 0  9997
2 42017  97.3247 148.9349 0007577  70.8781 289.3278 15.27698184227712
ZHUHAI-1 02 (CAS-4B)    
1 42759U 17034B   21080.37500000  .00000377  00000-0  36100-4 0  9999
2 42759  43.0185 305.2751 0010453 328.2047  19.8064 15.10119063207826
ZHUHAI-1 01 (CAS-4A)    
1 42761U 17034D   21080.13493523  .00000370  00000-0  35627-4 0  9993
2 42761  43.0191 305.7109 0010830 328.1424 175.9474 15.10200013207796
MAX VALIER SAT          
1 42778U 17036P   21080.35634764  .00001784  00000-0  77884-4 0  9992
2 42778  97.2672 131.8151 0013539 123.3295 236.9241 15.23323670207872
RADFXSAT (FOX-1B)       
1 43017U 17073E   21080.27511176  .00000719  00000-0  61309-4 0  9994
2 43017  97.7131 347.7416 0254311 227.8323 130.1041 14.79392174180084
FOX-1D (AO-92)          
1 43137U 18004AC  21079.75788245  .00001995  00000-0  82920-4 0  9995
2 43137  97.4138 154.6857 0009579 154.5821 205.5890 15.24936408177145
DIWATA-2B               
1 43678U 18084H   21080.38127941  .00000537  00000-0  59029-4 0  9999
2 43678  97.9091 205.2811 0009662 351.2232   8.8819 14.91724218130305
ES'HAIL 2               
1 43700U 18090A   21079.82132556  .00000144  00000-0  00000-0 0  9992
2 43700   0.0150 145.6472 0002313 244.8676 109.5108  1.00274180  8484
FOX-1CLIFF (AO-95)      
1 43770U 18099N   21080.18437237  .00000240  00000-0  26998-4 0  9998
2 43770  97.6729 152.2925 0014284 358.6379   1.4801 14.95231867125265
ITASAT 1                
1 43786U 18099AE  21080.18815712  .00000234  00000-0  26209-4 0  9991
2 43786  97.6746 152.9129 0014765 351.4703   8.6265 14.95537964125293
JY1SAT (JO-97)          
1 43803U 18099AX  21080.16603133  .00000282  00000-0  30365-4 0  9992
2 43803  97.6711 152.6546 0014758 352.1617   7.9371 14.95768854125293
UWE-4                   
1 43880U 18111E   21080.27576138  .00000686  00000-0  64985-4 0  9991
2 43880  97.6916 349.4939 0013157  44.3627 315.8646 14.96765294119891
PSAT2 (NO-104)          
1 44354U 19036R   21080.07951231  .00028308  00000-0  38780-3 0  9998
2 44354  28.5289 355.2394 0335955  39.5074 322.9514 15.10827844 95577
BRICSAT2 (NO-103)       
1 44355U 19036S   21080.04924794  .00058990  00000-0  69469-3 0  9998
2 44355  28.5265 323.4432 0285907  91.1384 272.1978 15.23877179 95896
JAISAT-1                
1 44419U 19038F   21079.85562377  .00001696  00000-0  98128-4 0  9999
2 44419  97.5785  44.9569 0019474 257.1467 102.7588 15.13498791 94393
DUCHIFAT-3              
1 44854U 19089C   21080.49344499  .00000629  00000-0  56783-4 0  9999
2 44854  36.9659 260.7702 0006712 152.2125 207.9001 14.99380434 69899
RS-44 & BREEZE-KM R/B   
1 44909U 19096E   21079.73330987  .00000014  00000-0  20343-4 0  9991
2 44909  82.5252 171.7582 0216319 300.6827  57.3114 12.79708907 57497
ORBITAL FACTORY 2 (OF-2)
1 45113U 19071C   21079.62965615  .00004164  00000-0  13139-3 0  9996
2 45113  51.6416 107.9746 0012182 335.5691  24.4713 15.35061785 63527
HUSKYSAT-1 (HO-107)     
1 45119U 19071J   21080.09969189  .00003348  00000-0  10756-3 0  9990
2 45119  51.6415 105.1105 0011521 333.9802  26.0600 15.35148398 63599
BY70-2                  
1 45857U 20042B   21080.43453776  .00001186  00000-0  17636-3 0  9999
2 45857  97.9882 157.0974 0012627 134.0737 226.1512 14.76777864 38557
SALSAT                  
1 46495U 20068K   21079.87441082  .00000342  00000-0  29630-4 0  9990
2 46495  97.6878  17.9375 0017940  19.0115 341.1776 15.03384773 26025
BY70-3                  
1 46839U 20079N   21080.41049947  .00002931  00000-0  94131-4 0  9994
2 46839  97.2467 156.0229 0008014 150.5292 271.1847 15.33055737 20718
RADFXSAT-2 (AO-109)     
1 47311U 21002C   21079.84007812  .00001894  00000-0  95395-4 0  9997
2 47311  60.6853 262.8379 0021969 354.3674   5.7162 15.21366046  9387
UVSQ-SAT                
1 47438U 21006AB  21080.15892289  .00001210  00000-0  72235-4 0  9997
2 47438  97.4980 142.9271 0013881  48.4007 311.8411 15.12933159  8708
